ONEWEB-0435             
1 51632U 22012L   25011.90294021 -.00000359  00000+0 -10644-2 0  9995
2 51632  87.8916 140.1338 0001276 120.8607 239.2646 13.10369582141048
ONEWEB-0436             
1 51633U 22012M   25011.75852695  .00000021  00000+0  20708-4 0  9994
2 51633  87.9097 109.7341 0001679 115.6061 244.5244 13.17647936145011
ONEWEB-0438             
1 51634U 22012N   25011.88635866  .00000483  00000+0  13463-2 0  9998
2 51634  87.8916 140.1374 0001528  98.4753 261.6548 13.10374060141072
ONEWEB-0439             
1 51635U 22012P   25012.04239136  .00000349  00000+0  96374-3 0  9992
2 51635  87.8917 140.0932 0001501 105.8918 254.2375 13.10370309142350
ONEWEB-0442             
1 51636U 22012Q   25011.75094014 -.00000343  00000+0 -91577-3 0  9990
2 51636  87.9101 109.7777 0002147  89.0069 271.1309 13.17648665145003
ONEWEB-0443             
1 51637U 22012R   25012.30189241  .00000015  00000+0  54465-5 0  9991
2 51637  87.9105 109.6797 0001442  95.3969 264.7327 13.17651624146418
ONEWEB-0444             
1 51638U 22012S   25011.87972151  .00000631  00000+0  17700-2 0  9995
2 51638  87.8913 140.1364 0001392 108.0014 252.1265 13.10372553141064
ONEWEB-0445             
1 51639U 22012T   25012.35943060 -.00000103  00000+0 -33043-3 0  9992
2 51639  87.8908 140.0038 0001747 102.4112 257.7210 13.10369384142416
